{"fetched_at":"2026-03-30T06:02:59Z","count":15439,"tles":[{"name":"STARLINK-35778","line1":"1 66973U 25288Q   26087.53663757  .00027943  00000+0  10206-2 0  9996","line2":"2 66973  43.0001 276.6816 0001447 268.5514  91.5172 15.27596904 18174","category":"Starlink"}]}